GLOBALSTAR M063         
1 26081U 00008A   25195.62322799 -.00000107  00000+0 -36144-3 0  9997
2 26081  51.9970  39.3153 0004929  19.1902  15.7743 11.86173662160836
GLOBALSTAR M062         
1 26082U 00008B   25195.95792728 -.00000149  00000+0 -36503-3 0  9992
2 26082  51.9868  14.1171 0007368 164.2501   1.5585 12.43469316500070
GLOBALSTAR M060         
1 26083U 00008C   25195.74384448 -.00000196  00000+0 -10488-2 0  9991
2 26083  52.0044 338.6531 0003562 168.3287 329.5020 12.17664521155722
GLOBALSTAR M069         
1 31573U 07020C   25195.77308062 -.00000063  00000+0  27003-3 0  9997
2 31573  51.9942 127.1440 0000658 203.5841 175.7989 12.23447058837507
GLOBALSTAR M072         
1 31574U 07020D   25195.96666463 -.00000059  00000+0  34921-3 0  9993
2 31574  51.9934 278.0168 0000888  48.1080 123.2277 11.91650378834774
